{"type": "FeatureCollection", "features": [ {"type": "Feature", "properties": {"norad_id": 62339, "name": "GPS BIII-7  (PRN 01)", "group": "gps-ops", "lat": 6.3342539553907375, "lon": -13.980718826234796, "alt_km": 20150.77052295604, "timestamp": "2025-12-17T09:00:17.407365+00:00", "meta": {"OBJECT_NAME": "GPS BIII-7  (PRN 01)", "OBJECT_ID": "2024-242A", "EPOCH": "2025-12-16T08:50:11.332608", "MEAN_MOTION": 2.00568131, "ECCENTRICITY": 0.00124404, "INCLINATION": 54.9226, "RA_OF_ASC_NODE": 341.593, "ARG_OF_PERICENTER": 345.4157, "MEAN_ANOMALY": 15.1615, "EPHEMERIS_TYPE": 0, "CLASSIFICATION_TYPE": "U", "NORAD_CAT_ID": 62339, "ELEMENT_SET_NO": 999, "REV_AT_EPOCH": 759, "BSTAR": 0, "MEAN_MOTION_DOT": -9e-07, "MEAN_MOTION_DDOT": 0}, "tle": {"line1": "1 62339U 24242A   25350.36818672 -.00000090  00000+0  00000+0 0  9991", "line2": "2 62339  54.9226 341.5930 0012440 345.4157  15.1615  2.00568131  7594"}}, "geometry": {"type": "Point", "coordinates": [-13.980718826234796, 6.3342539553907375]}}, {"type": "Feature", "properties": {"norad_id": 64202, "name": "GPS BIII-8  (PRN 21)", "group": "gps-ops", "lat": -13.850552583927687, "lon": -131.62794305478155, "alt_km": 20190.097355720183, "timestamp": "2025-12-17T09:00:17.407378+00:00", "meta": {"OBJECT_NAME": "GPS BIII-8  (PRN 21)", "OBJECT_ID": "2025-116A", "EPOCH": "2025-12-14T02:46:13.653120", "MEAN_MOTION": 2.00558299, "ECCENTRICITY": 0.00056153, "INCLINATION": 55.1067, "RA_OF_ASC_NODE": 38.5851, "ARG_OF_PERICENTER": 308.147, "MEAN_ANOMALY": 55.2369, "EPHEMERIS_TYPE": 0, "CLASSIFICATION_TYPE": "U", "NORAD_CAT_ID": 64202, "ELEMENT_SET_NO": 999, "REV_AT_EPOCH": 416, "BSTAR": 0, "MEAN_MOTION_DOT": -9.6e-07, "MEAN_MOTION_DDOT": 0}, "tle": {"line1": "1 64202U 25116A   25348.11543580 -.00000096  00000+0  00000+0 0  9992", "line2": "2 64202  55.1067  38.5851 0005615 308.1470  55.2369  2.00558299  4161"}}, "geometry": {"type": "Point", "coordinates": [-131.62794305478155, -13.850552583927687]}}]}